[
    {
        "OBJECT_NAME": "NAVSTAR 1 (OPS 5111)",
        "OBJECT_ID": "1978-020A",
        "EPOCH": "2025-11-23T22:39:03.379104",
        "MEAN_MOTION": 1.9807202,
        "ECCENTRICITY": 0.0081543,
        "INCLINATION": 64.1985,
        "RA_OF_ASC_NODE": 58.4806,
        "ARG_OF_PERICENTER": 218.2317,
        "MEAN_ANOMALY": 141.2178,
        "EPHEMERIS_TYPE": 0,
        "CLASSIFICATION_TYPE": "U",
        "NORAD_CAT_ID": 10684,
        "ELEMENT_SET_NO": 999,
        "REV_AT_EPOCH": 33237,
        "BSTAR": 0,
        "MEAN_MOTION_DOT": -2.7e-07,
        "MEAN_MOTION_DDOT": 0
    },
    {
        "OBJECT_NAME": "NAVSTAR 2 (OPS 5112)",
        "OBJECT_ID": "1978-047A",
        "EPOCH": "2025-11-14T03:58:58.142208",
        "MEAN_MOTION": 2.0162732,
        "ECCENTRICITY": 0.0538122,
        "INCLINATION": 62.808,
        "RA_OF_ASC_NODE": 279.34,
        "ARG_OF_PERICENTER": 42.2976,
        "MEAN_ANOMALY": 132.4929,
        "EPHEMERIS_TYPE": 0,
        "CLASSIFICATION_TYPE": "U",
        "NORAD_CAT_ID": 10893,
        "ELEMENT_SET_NO": 999,
        "REV_AT_EPOCH": 34939,
        "BSTAR": 0,
        "MEAN_MOTION_DOT": -4.5e-07,
        "MEAN_MOTION_DDOT": 0
    },
    {
        "OBJECT_NAME": "NAVSTAR 3 (OPS 5113)",
        "OBJECT_ID": "1978-093A",
        "EPOCH": "2025-11-20T19:37:05.913984",
        "MEAN_MOTION": 1.93504784,
        "ECCENTRICITY": 0.01009986,
        "INCLINATION": 63.0906,
        "RA_OF_ASC_NODE": 306.3938,
        "ARG_OF_PERICENTER": 228.1582,
        "MEAN_ANOMALY": 313.5008,
        "EPHEMERIS_TYPE": 0,
        "CLASSIFICATION_TYPE": "U",
        "NORAD_CAT_ID": 11054,
        "ELEMENT_SET_NO": 999,
        "REV_AT_EPOCH": 33664,
        "BSTAR": 0,
        "MEAN_MOTION_DOT": -4.8e-07,
        "MEAN_MOTION_DDOT": 0
    },
    {
        "OBJECT_NAME": "NAVSTAR 4 (OPS 5114)",
        "OBJECT_ID": "1978-112A",
        "EPOCH": "2025-11-23T18:17:04.397280",
        "MEAN_MOTION": 1.928955,
        "ECCENTRICITY": 0.0142576,
        "INCLINATION": 63.5671,
        "RA_OF_ASC_NODE": 78.0251,
        "ARG_OF_PERICENTER": 49.8281,
        "MEAN_ANOMALY": 306.8703,
        "EPHEMERIS_TYPE": 0,
        "CLASSIFICATION_TYPE": "U",
        "NORAD_CAT_ID": 11141,
        "ELEMENT_SET_NO": 999,
        "REV_AT_EPOCH": 22512,
        "BSTAR": 0,
        "MEAN_MOTION_DOT": 2e-08,
        "MEAN_MOTION_DDOT": 0
    },
    {
        "OBJECT_NAME": "NAVSTAR 5 (OPS 5117)",
        "OBJECT_ID": "1980-011A",
        "EPOCH": "2025-11-19T22:49:01.985952",
        "MEAN_MOTION": 2.00580372,
        "ECCENTRICITY": 0.04854708,
        "INCLINATION": 64.6386,
        "RA_OF_ASC_NODE": 54.992,
        "ARG_OF_PERICENTER": 204.8855,
        "MEAN_ANOMALY": 155.6608,
        "EPHEMERIS_TYPE": 0,
        "CLASSIFICATION_TYPE": "U",
        "NORAD_CAT_ID": 11690,
        "ELEMENT_SET_NO": 999,
        "REV_AT_EPOCH": 34953,
        "BSTAR": 0,
        "MEAN_MOTION_DOT": -6.2e-07,
        "MEAN_MOTION_DDOT": 0
    },
    {
        "OBJECT_NAME": "NAVSTAR 6 (OPS 5118)",
        "OBJECT_ID": "1980-032A",
        "EPOCH": "2025-11-23T18:20:47.423328",
        "MEAN_MOTION": 2.03455918,
        "ECCENTRICITY": 0.0547433,
        "INCLINATION": 61.9291,
        "RA_OF_ASC_NODE": 255.4299,
        "ARG_OF_PERICENTER": 52.3078,
        "MEAN_ANOMALY": 120.7445,
        "EPHEMERIS_TYPE": 0,
        "CLASSIFICATION_TYPE": "U",
        "NORAD_CAT_ID": 11783,
        "ELEMENT_SET_NO": 999,
        "REV_AT_EPOCH": 33757,
        "BSTAR": 0,
        "MEAN_MOTION_DOT": 8e-08,
        "MEAN_MOTION_DDOT": 0
    },
    {
        "OBJECT_NAME": "NAVSTAR 8 (OPS 9794)",
        "OBJECT_ID": "1983-072A",
        "EPOCH": "2025-11-22T11:53:27.431232",
        "MEAN_MOTION": 1.917193,
        "ECCENTRICITY": 0.0218166,
        "INCLINATION": 63.2872,
        "RA_OF_ASC_NODE": 74.8136,
        "ARG_OF_PERICENTER": 55.8374,
        "MEAN_ANOMALY": 341.1845,
        "EPHEMERIS_TYPE": 0,
        "CLASSIFICATION_TYPE": "U",
        "NORAD_CAT_ID": 14189,
        "ELEMENT_SET_NO": 999,
        "REV_AT_EPOCH": 22276,
        "BSTAR": 0,
        "MEAN_MOTION_DOT": -1.5e-07,
        "MEAN_MOTION_DDOT": 0
    },
    {
        "OBJECT_NAME": "NAVSTAR 9 (USA 1)",
        "OBJECT_ID": "1984-059A",
        "EPOCH": "2025-11-22T09:55:00.948288",
        "MEAN_MOTION": 1.92302735,
        "ECCENTRICITY": 0.02396125,
        "INCLINATION": 63.4295,
        "RA_OF_ASC_NODE": 70.2549,
        "ARG_OF_PERICENTER": 53.3007,
        "MEAN_ANOMALY": 302.9011,
        "EPHEMERIS_TYPE": 0,
        "CLASSIFICATION_TYPE": "U",
        "NORAD_CAT_ID": 15039,
        "ELEMENT_SET_NO": 999,
        "REV_AT_EPOCH": 29414,
        "BSTAR": 0,
        "MEAN_MOTION_DOT": -2.3e-07,
        "MEAN_MOTION_DDOT": 0
    },
    {
        "OBJECT_NAME": "NAVSTAR 10 (USA 5)",
        "OBJECT_ID": "1984-097A",
        "EPOCH": "2025-11-22T07:01:13.747872",
        "MEAN_MOTION": 1.92619123,
        "ECCENTRICITY": 0.01474603,
        "INCLINATION": 62.3056,
        "RA_OF_ASC_NODE": 297.1955,
        "ARG_OF_PERICENTER": 227.3952,
        "MEAN_ANOMALY": 315.6502,
        "EPHEMERIS_TYPE": 0,
        "CLASSIFICATION_TYPE": "U",
        "NORAD_CAT_ID": 15271,
        "ELEMENT_SET_NO": 999,
        "REV_AT_EPOCH": 29233,
        "BSTAR": 0,
        "MEAN_MOTION_DOT": -3.3e-07,
        "MEAN_MOTION_DDOT": 0
    },
    {
        "OBJECT_NAME": "NAVSTAR 11 (USA 10)",
        "OBJECT_ID": "1985-093A",
        "EPOCH": "2025-11-23T19:39:01.828224",
        "MEAN_MOTION": 1.89368846,
        "ECCENTRICITY": 0.0335588,
        "INCLINATION": 63.4421,
        "RA_OF_ASC_NODE": 90.2879,
        "ARG_OF_PERICENTER": 55.3171,
        "MEAN_ANOMALY": 309.1069,
        "EPHEMERIS_TYPE": 0,
        "CLASSIFICATION_TYPE": "U",
        "NORAD_CAT_ID": 16129,
        "ELEMENT_SET_NO": 999,
        "REV_AT_EPOCH": 22541,
        "BSTAR": 0,
        "MEAN_MOTION_DOT": 2.6e-07,
        "MEAN_MOTION_DDOT": 0
    },
    {
        "OBJECT_NAME": "NAVSTAR 13 (USA 35)",
        "OBJECT_ID": "1989-013A",
        "EPOCH": "2025-11-23T13:17:45.847968",
        "MEAN_MOTION": 1.85325459,
        "ECCENTRICITY": 0.0042967,
        "INCLINATION": 54.894,
        "RA_OF_ASC_NODE": 101.5643,
        "ARG_OF_PERICENTER": 244.0509,
        "MEAN_ANOMALY": 112.062,
        "EPHEMERIS_TYPE": 0,
        "CLASSIFICATION_TYPE": "U",
        "NORAD_CAT_ID": 19802,
        "ELEMENT_SET_NO": 999,
        "REV_AT_EPOCH": 25445,
        "BSTAR": 0,
        "MEAN_MOTION_DOT": 2.9e-07,
        "MEAN_MOTION_DDOT": 0
    },
    {
        "OBJECT_NAME": "NAVSTAR 14 (USA 38)",
        "OBJECT_ID": "1989-044A",
        "EPOCH": "2025-11-23T16:00:26.999424",
        "MEAN_MOTION": 1.88858423,
        "ECCENTRICITY": 0.0025871,
        "INCLINATION": 53.4143,
        "RA_OF_ASC_NODE": 247.1859,
        "ARG_OF_PERICENTER": 206.3052,
        "MEAN_ANOMALY": 335.8916,
        "EPHEMERIS_TYPE": 0,
        "CLASSIFICATION_TYPE": "U",
        "NORAD_CAT_ID": 20061,
        "ELEMENT_SET_NO": 999,
        "REV_AT_EPOCH": 25790,
        "BSTAR": 0,
        "MEAN_MOTION_DOT": 2e-08,
        "MEAN_MOTION_DDOT": 0
    },
    {
        "OBJECT_NAME": "NAVSTAR 15 (USA 42)",
        "OBJECT_ID": "1989-064A",
        "EPOCH": "2025-11-18T07:11:18.652416",
        "MEAN_MOTION": 1.86088265,
        "ECCENTRICITY": 0.00103214,
        "INCLINATION": 54.8198,
        "RA_OF_ASC_NODE": 96.5711,
        "ARG_OF_PERICENTER": 317.3164,
        "MEAN_ANOMALY": 62.7777,
        "EPHEMERIS_TYPE": 0,
        "CLASSIFICATION_TYPE": "U",
        "NORAD_CAT_ID": 20185,
        "ELEMENT_SET_NO": 999,
        "REV_AT_EPOCH": 25228,
        "BSTAR": 0,
        "MEAN_MOTION_DOT": -5e-08,
        "MEAN_MOTION_DDOT": 0
    },
    {
        "OBJECT_NAME": "NAVSTAR 16 (USA 47)",
        "OBJECT_ID": "1989-085A",
        "EPOCH": "2025-11-23T16:30:06.816096",
        "MEAN_MOTION": 1.8942619,
        "ECCENTRICITY": 0.0009952,
        "INCLINATION": 53.9792,
        "RA_OF_ASC_NODE": 190.8518,
        "ARG_OF_PERICENTER": 69.1959,
        "MEAN_ANOMALY": 115.4699,
        "EPHEMERIS_TYPE": 0,
        "CLASSIFICATION_TYPE": "U",
        "NORAD_CAT_ID": 20302,
        "ELEMENT_SET_NO": 999,
        "REV_AT_EPOCH": 25464,
        "BSTAR": 0,
        "MEAN_MOTION_DOT": 6.4e-07,
        "MEAN_MOTION_DDOT": 0
    },
    {
        "OBJECT_NAME": "NAVSTAR 17 (USA 49)",
        "OBJECT_ID": "1989-097A",
        "EPOCH": "2025-11-22T12:48:11.396736",
        "MEAN_MOTION": 1.89176063,
        "ECCENTRICITY": 0.0023031,
        "INCLINATION": 56.3084,
        "RA_OF_ASC_NODE": 18.1857,
        "ARG_OF_PERICENTER": 314.6129,
        "MEAN_ANOMALY": 193.4458,
        "EPHEMERIS_TYPE": 0,
        "CLASSIFICATION_TYPE": "U",
        "NORAD_CAT_ID": 20361,
        "ELEMENT_SET_NO": 999,
        "REV_AT_EPOCH": 24544,
        "BSTAR": 0,
        "MEAN_MOTION_DOT": -8.2e-07,
        "MEAN_MOTION_DDOT": 0
    },
    {
        "OBJECT_NAME": "NAVSTAR 18 (USA 50)",
        "OBJECT_ID": "1990-008A",
        "EPOCH": "2025-11-22T12:34:17.400000",
        "MEAN_MOTION": 1.89597906,
        "ECCENTRICITY": 0.0012876,
        "INCLINATION": 54.8176,
        "RA_OF_ASC_NODE": 140.8816,
        "ARG_OF_PERICENTER": 278.2605,
        "MEAN_ANOMALY": 75.4907,
        "EPHEMERIS_TYPE": 0,
        "CLASSIFICATION_TYPE": "U",
        "NORAD_CAT_ID": 20452,
        "ELEMENT_SET_NO": 999,
        "REV_AT_EPOCH": 25250,
        "BSTAR": 0,
        "MEAN_MOTION_DOT": 7.1e-07,
        "MEAN_MOTION_DDOT": 0
    }
]